STARLINK-31485          
1 59308U 24056N   26067.52828034  .00000170  00000+0  15701-4 0  9990
2 59308  43.0014 237.5287 0001410 254.6385 105.4310 15.27580311110977
BANDWAGON-4 OBJECT P    
1 66306U 25248P   26067.98083108  .00022647  00000+0  92291-3 0  9996
2 66306  45.4037 295.4322 0012078 209.3167 150.7044 15.24098352 19290
